start=new Date('2022-10-17T00:00:00.000Z').valueOf();
sats=[{"ELEMENT_SET_NO":"999","NORAD_CAT_ID":"46698","TLE_LINE1":"1 46698U 20073AE  22289.76187060 -.00001512  00000-0 -82660-4 0  9990","FILE":"3617955","SITE":"AFETR","SEMIMAJOR_AXIS":"6925.412","CLASSIFICATION_TYPE":"U","ECCENTRICITY":"0.00014130","APOAPSIS":"548.255","MEAN_ELEMENT_THEORY":"SGP4","CENTER_NAME":"EARTH","COUNTRY_CODE":"US","REV_AT_EPOCH":"11024","REF_FRAME":"TEME","RCS_SIZE":"LARGE","MEAN_MOTION_DDOT":"0.0000000000000","MEAN_ANOMALY":"275.8877","TIME_SYSTEM":"UTC","OBJECT_ID":"2020-073AE","INCLINATION":"53.0565","PERIOD":"95.593","GP_ID":"215344390","OBJECT_NAME":"STARLINK-1797","RA_OF_ASC_NODE":"47.8596","EPOCH":"2022-10-16T18:17:05.619840","BSTAR":"-0.00008266000000","ARG_OF_PERICENTER":"84.2273","TLE_LINE2":"2 46698  53.0565  47.8596 0001413  84.2273 275.8877 15.06379390110248","EPHEMERIS_TYPE":"0","PERIAPSIS":"546.298","OBJECT_TYPE":"PAYLOAD","MEAN_MOTION":"15.06379390","MEAN_MOTION_DOT":"-0.00001512","LAUNCH_DATE":"2020-10-18","DECAY_DATE":null},{"EPHEMERIS_TYPE":"0","PERIAPSIS":"546.247","OBJECT_TYPE":"PAYLOAD","TLE_LINE2":"2 46699  53.0562  47.8534 0001467  83.4891 276.6265 15.06383979110242","LAUNCH_DATE":"2020-10-18","DECAY_DATE":null,"MEAN_MOTION":"15.06383979","MEAN_MOTION_DOT":"-0.00000620","PERIOD":"95.593","GP_ID":"215344640","OBJECT_NAME":"STARLINK-1799","INCLINATION":"53.0562","EPOCH":"2022-10-16T18:23:45.525696","BSTAR":"-0.00002275600000","ARG_OF_PERICENTER":"83.4891","RA_OF_ASC_NODE":"47.8534","COUNTRY_CODE":"US","REV_AT_EPOCH":"11024","CENTER_NAME":"EARTH","TIME_SYSTEM":"UTC","OBJECT_ID":"2020-073AF","REF_FRAME":"TEME","RCS_SIZE":"LARGE","MEAN_ANOMALY":"276.6265","MEAN_MOTION_DDOT":"0.0000000000000","SITE":"AFETR","SEMIMAJOR_AXIS":"6925.398","CLASSIFICATION_TYPE":"U","ELEMENT_SET_NO":"999","NORAD_CAT_ID":"46699","FILE":"3617955","TLE_LINE1":"1 46699U 20073AF  22289.76649914 -.00000620  00000-0 -22756-4 0  9991","MEAN_ELEMENT_THEORY":"SGP4","APOAPSIS":"548.279","ECCENTRICITY":"0.00014670"},{"REV_AT_EPOCH":"11051","COUNTRY_CODE":"US","CENTER_NAME":"EARTH","OBJECT_ID":"2020-073AG","TIME_SYSTEM":"UTC","MEAN_MOTION_DDOT":"0.0000000000000","MEAN_ANOMALY":"302.6992","REF_FRAME":"TEME","RCS_SIZE":"LARGE","CLASSIFICATION_TYPE":"U","SITE":"AFETR","SEMIMAJOR_AXIS":"6925.380","TLE_LINE1":"1 46700U 20073AG  22289.77064041  .00000943  00000-0  82194-4 0  9995","FILE":"3617480","ELEMENT_SET_NO":"999","NORAD_CAT_ID":"46700","MEAN_ELEMENT_THEORY":"SGP4","APOAPSIS":"548.514","ECCENTRICITY":"0.00018320","PERIAPSIS":"545.976","OBJECT_TYPE":"PAYLOAD","EPHEMERIS_TYPE":"0","TLE_LINE2":"2 46700  53.0575  62.8501 0001832  57.4173 302.6992 15.06389710110516","DECAY_DATE":null,"LAUNCH_DATE":"2020-10-18","MEAN_MOTION_DOT":"0.00000943","MEAN_MOTION":"15.06389710","GP_ID":"215314341","OBJECT_NAME":"STARLINK-1800","PERIOD":"95.593","INCLINATION":"53.0575","BSTAR":"0.00008219400000","ARG_OF_PERICENTER":"57.4173","EPOCH":"2022-10-16T18:29:43.331424","RA_OF_ASC_NODE":"62.8501"},{"MEAN_ELEMENT_THEORY":"SGP4","APOAPSIS":"548.199","ECCENTRICITY":"0.00014180","SITE":"AFETR","SEMIMAJOR_AXIS":"6925.352","CLASSIFICATION_TYPE":"U","ELEMENT_SET_NO":"999","NORAD_CAT_ID":"46701","FILE":"3617955","TLE_LINE1":"1 46701U 20073AH  22289.73699822 -.00000165  00000-0  78026-5 0  9990","TIME_SYSTEM":"UTC","OBJECT_ID":"2020-073AH","REF_FRAME":"TEME","RCS_SIZE":"LARGE","MEAN_ANOMALY":"282.2424","MEAN_MOTION_DDOT":"0.0000000000000","COUNTRY_CODE":"US","REV_AT_EPOCH":"11024","CENTER_NAME":"EARTH","EPOCH":"2022-10-16T17:41:16.646208","ARG_OF_PERICENTER":"77.8724","BSTAR":"0.00000780260000","RA_OF_ASC_NODE":"47.9912","PERIOD":"95.592","OBJECT_NAME":"STARLINK-1801","GP_ID":"215343640","INCLINATION":"53.0555","LAUNCH_DATE":"2020-10-18","DECAY_DATE":null,"MEAN_MOTION":"15.06398782","MEAN_MOTION_DOT":"-0.00000165","EPHEMERIS_TYPE":"0","OBJECT_TYPE":"PAYLOAD","PERIAPSIS":"546.235","TLE_LINE2":"2 46701  53.0555  47.9912 0001418  77.8724 282.2424 15.06398782110245"},{"TLE_LINE2":"2 46702  53.0552  28.5249 0001727  53.4176 306.6972 15.06380111110500","EPHEMERIS_TYPE":"0","OBJECT_TYPE":"PAYLOAD","PERIAPSIS":"546.078","MEAN_MOTION":"15.06380111","MEAN_MOTION_DOT":"-0.00005401","LAUNCH_DATE":"2020-10-18","DECAY_DATE":null,"INCLINATION":"53.0552","PERIOD":"95.593","GP_ID":"215344890","OBJECT_NAME":"STARLINK-1802","RA_OF_ASC_NODE":"28.5249","EPOCH":"2022-10-16T14:48:47.148768","ARG_OF_PERICENTER":"53.4176","BSTAR":"-0.00034411000000","CENTER_NAME":"EARTH","COUNTRY_CODE":"US","REV_AT_EPOCH":"11050","RCS_SIZE":"LARGE","REF_FRAME":"TEME","MEAN_MOTION_DDOT":"0.0000000000000","MEAN_ANOMALY":"306.6972","TIME_SYSTEM":"UTC","OBJECT_ID":"2020-073AJ","NORAD_CAT_ID":"46702","ELEMENT_SET_NO":"999","TLE_LINE1":"1 46702U 20073AJ  22289.61721237 -.00005401  00000-0 -34411-3 0  9991","FILE":"3617955","SITE":"AFETR","SEMIMAJOR_AXIS":"6925.410","CLASSIFICATION_TYPE":"U","ECCENTRICITY":"0.00017270","APOAPSIS":"548.471","MEAN_ELEMENT_THEORY":"SGP4"},{"EPHEMERIS_TYPE":"0","OBJECT_TYPE":"PAYLOAD","PERIAPSIS":"546.261","TLE_LINE2":"2 46703  53.0563  48.0728 0001456  59.2092 300.9040 15.06381781110239","LAUNCH_DATE":"2020-10-18","DECAY_DATE":null,"MEAN_MOTION":"15.06381781","MEAN_MOTION_DOT":"-0.00001488","PERIOD":"95.593","GP_ID":"215345139","OBJECT_NAME":"STARLINK-1803","INCLINATION":"53.0563","EPOCH":"2022-10-16T17:09:27.025632","ARG_OF_PERICENTER":"59.2092","BSTAR":"-0.00008103100000","RA_OF_ASC_NODE":"48.0728","COUNTRY_CODE":"US","REV_AT_EPOCH":"11023","CENTER_NAME":"EARTH","TIME_SYSTEM":"UTC","OBJECT_ID":"2020-073AK","REF_FRAME":"TEME","RCS_SIZE":"LARGE","MEAN_ANOMALY":"300.9040","MEAN_MOTION_DDOT":"0.0000000000000","SITE":"AFETR","SEMIMAJOR_AXIS":"6925.404","CLASSIFICATION_TYPE":"U","ELEMENT_SET_NO":"999","NORAD_CAT_ID":"46703","FILE":"3617955","TLE_LINE1":"1 46703U 20073AK  22289.71489613 -.00001488  00000-0 -81031-4 0  9994","MEAN_ELEMENT_THEORY":"SGP4","APOAPSIS":"548.278","ECCENTRICITY":"0.00014560"},{"APOAPSIS":"548.479","ECCENTRICITY":"0.00017950","MEAN_ELEMENT_THEORY":"SGP4","FILE":"3617955","TLE_LINE1":"1 46704U 20073AL  22289.69461228 -.00000096  00000-0  12433-4 0  9997","ELEMENT_SET_NO":"999","NORAD_CAT_ID":"46704","CLASSIFICATION_TYPE":"U","SITE":"AFETR","SEMIMAJOR_AXIS":"6925.371","MEAN_ANOMALY":"308.8294","MEAN_MOTION_DDOT":"0.0000000000000","REF_FRAME":"TEME","RCS_SIZE":"LARGE","OBJECT_ID":"2020-073AL","TIME_SYSTEM":"UTC","CENTER_NAME":"EARTH","REV_AT_EPOCH":"11051","COUNTRY_CODE":"US","RA_OF_ASC_NODE":"28.1811","ARG_OF_PERICENTER":"51.2855","BSTAR":"0.00001243300000","EPOCH":"2022-10-16T16:40:14.500992","INCLINATION":"53.0568","OBJECT_NAME":"STARLINK-1804","GP_ID":"215343890","PERIOD":"95.593","MEAN_MOTION_DOT":"-0.00000096","MEAN_MOTION":"15.06392800","DECAY_DATE":null,"LAUNCH_DATE":"2020-10-18","TLE_LINE2":"2 46704  53.0568  28.1811 0001795  51.2855 308.8294 15.06392800110515","OBJECT_TYPE":"PAYLOAD","PERIAPSIS":"545.993","EPHEMERIS_TYPE":"0"},{"NORAD_CAT_ID":"46705","ELEMENT_SET_NO":"999","TLE_LINE1":"1 46705U 20073AM  22289.77432139  .00000212  00000-0  33152-4 0  9996","FILE":"3617955","SITE":"AFETR","SEMIMAJOR_AXIS":"6925.363","CLASSIFICATION_TYPE":"U","APOAPSIS":"548.165","ECCENTRICITY":"0.00013530","MEAN_ELEMENT_THEORY":"SGP4","CENTER_NAME":"EARTH","COUNTRY_CODE":"US","REV_AT_EPOCH":"11003","REF_FRAME":"TEME","RCS_SIZE":"LARGE","MEAN_MOTION_DDOT":"0.0000000000000","MEAN_ANOMALY":"279.8608","TIME_SYSTEM":"UTC","OBJECT_ID":"2020-073AM","INCLINATION":"53.0567","PERIOD":"95.592","OBJECT_NAME":"STARLINK-1805","GP_ID":"215344140","RA_OF_ASC_NODE":"62.8091","EPOCH":"2022-10-16T18:35:01.368096","BSTAR":"0.00003315200000","ARG_OF_PERICENTER":"80.2534","TLE_LINE2":"2 46705  53.0567  62.8091 0001353  80.2534 279.8608 15.06395352110034","EPHEMERIS_TYPE":"0","PERIAPSIS":"546.291","OBJECT_TYPE":"PAYLOAD","MEAN_MOTION":"15.06395352","MEAN_MOTION_DOT":"0.00000212","LAUNCH_DATE":"2020-10-18","DECAY_DATE":null},{"EPHEMERIS_TYPE":"0","OBJECT_TYPE":"PAYLOAD","PERIAPSIS":"546.296","TLE_LINE2":"2 46706  53.0567  47.9456 0001358  60.7122 299.4003 15.06392399110243","LAUNCH_DATE":"2020-10-18","DECAY_DATE":null,"MEAN_MOTION":"15.06392399","MEAN_MOTION_DOT":"-0.00000740","PERIOD":"95.593","GP_ID":"215344391","OBJECT_NAME":"STARLINK-1807","INCLINATION":"53.0567","EPOCH":"2022-10-16T17:57:12.333024","BSTAR":"-0.00003079900000","ARG_OF_PERICENTER":"60.7122","RA_OF_ASC_NODE":"47.9456","COUNTRY_CODE":"US","REV_AT_EPOCH":"11024","CENTER_NAME":"EARTH","TIME_SYSTEM":"UTC","OBJECT_ID":"2020-073AN","REF_FRAME":"TEME","RCS_SIZE":"LARGE","MEAN_ANOMALY":"299.4003","MEAN_MOTION_DDOT":"0.0000000000000","SITE":"AFETR","SEMIMAJOR_AXIS":"6925.372","CLASSIFICATION_TYPE":"U","NORAD_CAT_ID":"46706","ELEMENT_SET_NO":"999","FILE":"3617955","TLE_LINE1":"1 46706U 20073AN  22289.74805941 -.00000740  00000-0 -30799-4 0  9991","MEAN_ELEMENT_THEORY":"SGP4","APOAPSIS":"548.177","ECCENTRICITY":"0.00013580"},{"DECAY_DATE":null,"LAUNCH_DATE":"2020-10-18","MEAN_MOTION_DOT":"-0.00003780","MEAN_MOTION":"15.06389999","OBJECT_TYPE":"PAYLOAD","PERIAPSIS":"546.150","EPHEMERIS_TYPE":"0","TLE_LINE2":"2 46707  53.0561  28.2811 0001580  63.0775 297.0375 15.06389999110510","BSTAR":"-0.00023503000000","ARG_OF_PERICENTER":"63.0775","EPOCH":"2022-10-16T16:08:24.237600","RA_OF_ASC_NODE":"28.2811","OBJECT_NAME":"STARLINK-1808","GP_ID":"215344641","PERIOD":"95.593","INCLINATION":"53.0561","OBJECT_ID":"2020-073AP","TIME_SYSTEM":"UTC","MEAN_ANOMALY":"297.0375","MEAN_MOTION_DDOT":"0.0000000000000","RCS_SIZE":"LARGE","REF_FRAME":"TEME","REV_AT_EPOCH":"11051","COUNTRY_CODE":"US","CENTER_NAME":"EARTH","MEAN_ELEMENT_THEORY":"SGP4","APOAPSIS":"548.338","ECCENTRICITY":"0.00015800","CLASSIFICATION_TYPE":"U","SITE":"AFETR","SEMIMAJOR_AXIS":"6925.379","FILE":"3617955","TLE_LINE1":"1 46707U 20073AP  22289.67250275 -.00003780  00000-0 -23503-3 0  9999","ELEMENT_SET_NO":"999","NORAD_CAT_ID":"46707"}];
